[{"OBJECT_NAME":"STARLINK-35094","OBJECT_ID":"2025-191S","EPOCH":"2026-03-09T15:53:13.704288","MEAN_MOTION":15.05657783,"ECCENTRICITY":0.00023323,"INCLINATION":97.6026,"RA_OF_ASC_NODE":301.4709,"ARG_OF_PERICENTER":96.4121,"MEAN_ANOMALY":263.7371,"EPHEMERIS_TYPE":0,"CLASSIFICATION_TYPE":"U","NORAD_CAT_ID":65395,"ELEMENT_SET_NO":999,"REV_AT_EPOCH":3027,"BSTAR":0.0001593648,"MEAN_MOTION_DOT":2.24e-5,"MEAN_MOTION_DDOT":0},{"OBJECT_NAME":"PSLV DEB","OBJECT_ID":"2001-049NA","EPOCH":"2026-03-08T15:04:56.759808","MEAN_MOTION":15.08740413,"ECCENTRICITY":0.00254054,"INCLINATION":98.314,"RA_OF_ASC_NODE":131.3874,"ARG_OF_PERICENTER":357.4644,"MEAN_ANOMALY":2.6449,"EPHEMERIS_TYPE":0,"CLASSIFICATION_TYPE":"U","NORAD_CAT_ID":27582,"ELEMENT_SET_NO":999,"REV_AT_EPOCH":27774,"BSTAR":0.00086862236,"MEAN_MOTION_DOT":0.0001368,"MEAN_MOTION_DDOT":0}]
